NOAA 17                 
1 27453U 02032A   26088.17922811  .00000271  00000+0  13225-3 0  9998
2 27453  98.8575  53.0194 0010847 219.7976 140.2409 14.26200386235583
NOAA 18                 
1 28654U 05018A   26088.21730583  .00000068  00000+0  59065-4 0  9994
2 28654  98.8130 169.0486 0014547  22.7420 337.4394 14.13714770 75019
NOAA 19                 
1 33591U 09005A   26088.20196738  .00000041  00000+0  45722-4 0  9993
2 33591  98.9571 159.0025 0012745 255.0943 104.8818 14.13460532883188
SUOMI NPP               
1 37849U 11061A   26088.12688515  .00000076  00000+0  57173-4 0  9999
2 37849  98.7894  29.5773 0001693 158.3691 201.7557 14.19498561747084
NOAA 20 (JPSS-1)        
1 43013U 17073A   26088.14130129  .00000102  00000+0  69080-4 0  9993
2 43013  98.7714  28.3377 0001899 111.4734 248.6645 14.19541157433112
NOAA 21 (JPSS-2)        
1 54234U 22150A   26088.17579030  .00000101  00000+0  68655-4 0  9999
2 54234  98.7576  28.2210 0002751  72.6688 287.4789 14.19557313175196
