[{"OBJECT_NAME":"NOAA 17","OBJECT_ID":"2002-032A","EPOCH":"2026-03-29T04:18:05.308704","MEAN_MOTION":14.26200386,"ECCENTRICITY":0.0010847,"INCLINATION":98.8575,"RA_OF_ASC_NODE":53.0194,"ARG_OF_PERICENTER":219.7976,"MEAN_ANOMALY":140.2409,"EPHEMERIS_TYPE":0,"CLASSIFICATION_TYPE":"U","NORAD_CAT_ID":27453,"ELEMENT_SET_NO":999,"REV_AT_EPOCH":23558,"BSTAR":0.00013225,"MEAN_MOTION_DOT":2.71e-6,"MEAN_MOTION_DDOT":0},{"OBJECT_NAME":"NOAA 18","OBJECT_ID":"2005-018A","EPOCH":"2026-03-29T05:12:55.223712","MEAN_MOTION":14.1371477,"ECCENTRICITY":0.0014547,"INCLINATION":98.813,"RA_OF_ASC_NODE":169.0486,"ARG_OF_PERICENTER":22.742,"MEAN_ANOMALY":337.4394,"EPHEMERIS_TYPE":0,"CLASSIFICATION_TYPE":"U","NORAD_CAT_ID":28654,"ELEMENT_SET_NO":999,"REV_AT_EPOCH":7501,"BSTAR":5.9065e-5,"MEAN_MOTION_DOT":6.8e-7,"MEAN_MOTION_DDOT":0},{"OBJECT_NAME":"NOAA 19","OBJECT_ID":"2009-005A","EPOCH":"2026-03-29T04:50:49.981632","MEAN_MOTION":14.13460532,"ECCENTRICITY":0.0012745,"INCLINATION":98.9571,"RA_OF_ASC_NODE":159.0025,"ARG_OF_PERICENTER":255.0943,"MEAN_ANOMALY":104.8818,"EPHEMERIS_TYPE":0,"CLASSIFICATION_TYPE":"U","NORAD_CAT_ID":33591,"ELEMENT_SET_NO":999,"REV_AT_EPOCH":88318,"BSTAR":4.5722e-5,"MEAN_MOTION_DOT":4.1e-7,"MEAN_MOTION_DDOT":0},{"OBJECT_NAME":"SUOMI NPP","OBJECT_ID":"2011-061A","EPOCH":"2026-03-29T03:02:42.876960","MEAN_MOTION":14.19498561,"ECCENTRICITY":0.0001693,"INCLINATION":98.7894,"RA_OF_ASC_NODE":29.5773,"ARG_OF_PERICENTER":158.3691,"MEAN_ANOMALY":201.7557,"EPHEMERIS_TYPE":0,"CLASSIFICATION_TYPE":"U","NORAD_CAT_ID":37849,"ELEMENT_SET_NO":999,"REV_AT_EPOCH":74708,"BSTAR":5.7173e-5,"MEAN_MOTION_DOT":7.6e-7,"MEAN_MOTION_DDOT":0},{"OBJECT_NAME":"NOAA 20 (JPSS-1)","OBJECT_ID":"2017-073A","EPOCH":"2026-03-29T03:23:28.431456","MEAN_MOTION":14.19541157,"ECCENTRICITY":0.0001899,"INCLINATION":98.7714,"RA_OF_ASC_NODE":28.3377,"ARG_OF_PERICENTER":111.4734,"MEAN_ANOMALY":248.6645,"EPHEMERIS_TYPE":0,"CLASSIFICATION_TYPE":"U","NORAD_CAT_ID":43013,"ELEMENT_SET_NO":999,"REV_AT_EPOCH":43311,"BSTAR":6.908e-5,"MEAN_MOTION_DOT":1.02e-6,"MEAN_MOTION_DDOT":0},{"OBJECT_NAME":"NOAA 21 (JPSS-2)","OBJECT_ID":"2022-150A","EPOCH":"2026-03-29T04:13:08.281920","MEAN_MOTION":14.19557313,"ECCENTRICITY":0.0002751,"INCLINATION":98.7576,"RA_OF_ASC_NODE":28.221,"ARG_OF_PERICENTER":72.6688,"MEAN_ANOMALY":287.4789,"EPHEMERIS_TYPE":0,"CLASSIFICATION_TYPE":"U","NORAD_CAT_ID":54234,"ELEMENT_SET_NO":999,"REV_AT_EPOCH":17519,"BSTAR":6.8655e-5,"MEAN_MOTION_DOT":1.01e-6,"MEAN_MOTION_DDOT":0}]
